start=new Date('2022-08-11T00:00:00.000Z').valueOf();
sats=[{"GP_ID":"209996047","ECCENTRICITY":"0.00013990","ELEMENT_SET_NO":"999","LAUNCH_DATE":"2021-03-04","NORAD_CAT_ID":"47769","EPHEMERIS_TYPE":"0","APOAPSIS":"548.249","COUNTRY_CODE":"US","DECAY_DATE":null,"EPOCH":"2022-08-10T15:30:53.502048","PERIAPSIS":"546.312","INCLINATION":"53.0549","TIME_SYSTEM":"UTC","FILE":"3533963","ARG_OF_PERICENTER":"72.9759","BSTAR":"-0.00031094000000","REV_AT_EPOCH":"8105","MEAN_ANOMALY":"287.1383","OBJECT_TYPE":"PAYLOAD","CLASSIFICATION_TYPE":"U","TLE_LINE2":"2 47769  53.0549 299.1753 0001399  72.9759 287.1383 15.06378132 81050","OBJECT_NAME":"STARLINK-2192","SITE":"AFETR","REF_FRAME":"TEME","RCS_SIZE":"LARGE","MEAN_ELEMENT_THEORY":"SGP4","SEMIMAJOR_AXIS":"6925.416","MEAN_MOTION_DOT":"-0.00004907","MEAN_MOTION":"15.06378132","PERIOD":"95.594","OBJECT_ID":"2021-017AZ","MEAN_MOTION_DDOT":"0.0000000000000","TLE_LINE1":"1 47769U 21017AZ  22222.64645257 -.00004907  00000-0 -31094-3 0  9995","RA_OF_ASC_NODE":"299.1753","CENTER_NAME":"EARTH"},{"DECAY_DATE":null,"COUNTRY_CODE":"US","APOAPSIS":"547.977","EPHEMERIS_TYPE":"0","NORAD_CAT_ID":"47770","LAUNCH_DATE":"2021-03-04","ELEMENT_SET_NO":"999","ECCENTRICITY":"0.00010590","GP_ID":"209996276","OBJECT_TYPE":"PAYLOAD","BSTAR":"-0.00025237000000","MEAN_ANOMALY":"288.4002","REV_AT_EPOCH":"8082","ARG_OF_PERICENTER":"71.7102","FILE":"3533963","TIME_SYSTEM":"UTC","INCLINATION":"53.0545","PERIAPSIS":"546.510","EPOCH":"2022-08-10T15:42:10.932480","MEAN_ELEMENT_THEORY":"SGP4","RCS_SIZE":"LARGE","REF_FRAME":"TEME","SITE":"AFETR","OBJECT_NAME":"STARLINK-2193","TLE_LINE2":"2 47770  53.0545 314.1198 0001059  71.7102 288.4002 15.06390145 80825","CLASSIFICATION_TYPE":"U","CENTER_NAME":"EARTH","RA_OF_ASC_NODE":"314.1198","TLE_LINE1":"1 47770U 21017BA  22222.65429320 -.00004037  00000-0 -25237-3 0  9995","MEAN_MOTION_DDOT":"0.0000000000000","OBJECT_ID":"2021-017BA","PERIOD":"95.593","MEAN_MOTION":"15.06390145","SEMIMAJOR_AXIS":"6925.379","MEAN_MOTION_DOT":"-0.00004037"},{"INCLINATION":"53.0552","TIME_SYSTEM":"UTC","FILE":"3533963","ARG_OF_PERICENTER":"86.0383","BSTAR":"-0.00022253000000","REV_AT_EPOCH":"8084","MEAN_ANOMALY":"274.0762","OBJECT_TYPE":"PAYLOAD","EPOCH":"2022-08-10T17:33:38.213856","PERIAPSIS":"546.316","LAUNCH_DATE":"2021-03-04","NORAD_CAT_ID":"47771","EPHEMERIS_TYPE":"0","APOAPSIS":"548.217","DECAY_DATE":null,"COUNTRY_CODE":"US","GP_ID":"209995046","ECCENTRICITY":"0.00013720","ELEMENT_SET_NO":"999","PERIOD":"95.593","OBJECT_ID":"2021-017BB","MEAN_MOTION_DDOT":"0.0000000000000","TLE_LINE1":"1 47771U 21017BB  22222.73169229 -.00003593  00000-0 -22253-3 0  9995","RA_OF_ASC_NODE":"313.7919","CENTER_NAME":"EARTH","SEMIMAJOR_AXIS":"6925.401","MEAN_MOTION_DOT":"-0.00003593","MEAN_MOTION":"15.06382763","SITE":"AFETR","REF_FRAME":"TEME","RCS_SIZE":"LARGE","MEAN_ELEMENT_THEORY":"SGP4","CLASSIFICATION_TYPE":"U","TLE_LINE2":"2 47771  53.0552 313.7919 0001372  86.0383 274.0762 15.06382763 80841","OBJECT_NAME":"STARLINK-2194"},{"ELEMENT_SET_NO":"999","ECCENTRICITY":"0.00012830","GP_ID":"209972685","COUNTRY_CODE":"US","DECAY_DATE":null,"APOAPSIS":"548.175","EPHEMERIS_TYPE":"0","NORAD_CAT_ID":"47772","LAUNCH_DATE":"2021-03-04","PERIAPSIS":"546.398","EPOCH":"2022-08-10T12:31:46.279488","OBJECT_TYPE":"PAYLOAD","REV_AT_EPOCH":"7993","BSTAR":"-0.00015945000000","MEAN_ANOMALY":"266.7055","FILE":"3533866","ARG_OF_PERICENTER":"93.4081","TIME_SYSTEM":"UTC","INCLINATION":"53.0555","OBJECT_NAME":"STARLINK-2195","TLE_LINE2":"2 47772  53.0555 329.7329 0001283  93.4081 266.7055 15.06376241 79930","CLASSIFICATION_TYPE":"U","MEAN_ELEMENT_THEORY":"SGP4","RCS_SIZE":"LARGE","REF_FRAME":"TEME","SITE":"AFETR","MEAN_MOTION":"15.06376241","MEAN_MOTION_DOT":"-0.00002654","SEMIMAJOR_AXIS":"6925.421","CENTER_NAME":"EARTH","RA_OF_ASC_NODE":"329.7329","TLE_LINE1":"1 47772U 21017BC  22222.52206342 -.00002654  00000-0 -15945-3 0  9998","MEAN_MOTION_DDOT":"0.0000000000000","OBJECT_ID":"2021-017BC","PERIOD":"95.594"},{"MEAN_ELEMENT_THEORY":"SGP4","RCS_SIZE":"LARGE","REF_FRAME":"TEME","SITE":"AFETR","TLE_LINE2":"2 47773  53.0559 329.1485 0001434  83.7379 276.3774 15.06389238 80580","OBJECT_NAME":"STARLINK-2196","CLASSIFICATION_TYPE":"U","RA_OF_ASC_NODE":"329.1485","CENTER_NAME":"EARTH","TLE_LINE1":"1 47773U 21017BD  22222.65106270 -.00002743  00000-0 -16534-3 0  9996","MEAN_MOTION_DDOT":"0.0000000000000","PERIOD":"95.593","OBJECT_ID":"2021-017BD","MEAN_MOTION":"15.06389238","SEMIMAJOR_AXIS":"6925.382","MEAN_MOTION_DOT":"-0.00002743","APOAPSIS":"548.240","COUNTRY_CODE":"US","DECAY_DATE":null,"EPHEMERIS_TYPE":"0","NORAD_CAT_ID":"47773","LAUNCH_DATE":"2021-03-04","ELEMENT_SET_NO":"999","ECCENTRICITY":"0.00014340","GP_ID":"209995548","OBJECT_TYPE":"PAYLOAD","REV_AT_EPOCH":"8058","BSTAR":"-0.00016534000000","MEAN_ANOMALY":"276.3774","FILE":"3533963","ARG_OF_PERICENTER":"83.7379","INCLINATION":"53.0559","TIME_SYSTEM":"UTC","PERIAPSIS":"546.253","EPOCH":"2022-08-10T15:37:31.817280"},{"EPHEMERIS_TYPE":"0","COUNTRY_CODE":"US","DECAY_DATE":null,"APOAPSIS":"548.127","LAUNCH_DATE":"2021-03-04","NORAD_CAT_ID":"47774","ELEMENT_SET_NO":"999","GP_ID":"209995777","ECCENTRICITY":"0.00012250","BSTAR":"-0.00017294000000","REV_AT_EPOCH":"8061","MEAN_ANOMALY":"284.8875","OBJECT_TYPE":"PAYLOAD","TIME_SYSTEM":"UTC","INCLINATION":"53.0543","FILE":"3533963","ARG_OF_PERICENTER":"75.2249","PERIAPSIS":"546.430","EPOCH":"2022-08-10T18:43:18.378048","RCS_SIZE":"LARGE","MEAN_ELEMENT_THEORY":"SGP4","SITE":"AFETR","REF_FRAME":"TEME","CLASSIFICATION_TYPE":"U","OBJECT_NAME":"STARLINK-2197","TLE_LINE2":"2 47774  53.0543 328.5783 0001225  75.2249 284.8875 15.06378853 80619","TLE_LINE1":"1 47774U 21017BE  22222.78007382 -.00002855  00000-0 -17294-3 0  9993","CENTER_NAME":"EARTH","RA_OF_ASC_NODE":"328.5783","OBJECT_ID":"2021-017BE","PERIOD":"95.593","MEAN_MOTION_DDOT":"0.0000000000000","MEAN_MOTION":"15.06378853","MEAN_MOTION_DOT":"-0.00002855","SEMIMAJOR_AXIS":"6925.413"},{"RCS_SIZE":"LARGE","MEAN_ELEMENT_THEORY":"SGP4","SITE":"AFETR","REF_FRAME":"TEME","CLASSIFICATION_TYPE":"U","TLE_LINE2":"2 47775  53.0546 330.2953 0001845 123.0037 237.1129 15.06387878 80606","OBJECT_NAME":"STARLINK-2198","TLE_LINE1":"1 47775U 21017BF  22222.39304254 -.00003034  00000-0 -18489-3 0  9996","RA_OF_ASC_NODE":"330.2953","CENTER_NAME":"EARTH","PERIOD":"95.593","OBJECT_ID":"2021-017BF","MEAN_MOTION_DDOT":"0.0000000000000","MEAN_MOTION":"15.06387878","MEAN_MOTION_DOT":"-0.00003034","SEMIMAJOR_AXIS":"6925.386","EPHEMERIS_TYPE":"0","APOAPSIS":"548.528","DECAY_DATE":null,"COUNTRY_CODE":"US","LAUNCH_DATE":"2021-03-04","NORAD_CAT_ID":"47775","ELEMENT_SET_NO":"999","GP_ID":"209968005","ECCENTRICITY":"0.00018450","REV_AT_EPOCH":"8060","BSTAR":"-0.00018489000000","MEAN_ANOMALY":"237.1129","OBJECT_TYPE":"PAYLOAD","INCLINATION":"53.0546","TIME_SYSTEM":"UTC","ARG_OF_PERICENTER":"123.0037","FILE":"3533800","PERIAPSIS":"545.973","EPOCH":"2022-08-10T09:25:58.875456"},{"TLE_LINE1":"1 47776U 21017BG  22222.75151131 -.00002604  00000-0 -15603-3 0  9998","RA_OF_ASC_NODE":"318.6976","CENTER_NAME":"EARTH","PERIOD":"95.593","OBJECT_ID":"2021-017BG","MEAN_MOTION_DDOT":"0.0000000000000","MEAN_MOTION":"15.06382876","SEMIMAJOR_AXIS":"6925.401","MEAN_MOTION_DOT":"-0.00002604","RCS_SIZE":"LARGE","MEAN_ELEMENT_THEORY":"SGP4","SITE":"AFETR","REF_FRAME":"TEME","CLASSIFICATION_TYPE":"U","TLE_LINE2":"2 47776  53.0563 318.6976 0001328  82.1431 277.9709 15.06382876 80766","OBJECT_NAME":"STARLINK-2209","BSTAR":"-0.00015603000000","MEAN_ANOMALY":"277.9709","REV_AT_EPOCH":"8076","OBJECT_TYPE":"PAYLOAD","INCLINATION":"53.0563","TIME_SYSTEM":"UTC","FILE":"3533963","ARG_OF_PERICENTER":"82.1431","PERIAPSIS":"546.346","EPOCH":"2022-08-10T18:02:10.577184","EPHEMERIS_TYPE":"0","APOAPSIS":"548.186","COUNTRY_CODE":"US","DECAY_DATE":null,"LAUNCH_DATE":"2021-03-04","NORAD_CAT_ID":"47776","ELEMENT_SET_NO":"999","GP_ID":"209994797","ECCENTRICITY":"0.00013280"},{"OBJECT_ID":"2021-017BH","PERIOD":"95.594","MEAN_MOTION_DDOT":"0.0000000000000","TLE_LINE1":"1 47777U 21017BH  22222.48981396 -.00004288  00000-0 -26930-3 0  9998","CENTER_NAME":"EARTH","RA_OF_ASC_NODE":"319.8811","MEAN_MOTION_DOT":"-0.00004288","SEMIMAJOR_AXIS":"6925.417","MEAN_MOTION":"15.06377684","SITE":"AFETR","REF_FRAME":"TEME","RCS_SIZE":"LARGE","MEAN_ELEMENT_THEORY":"SGP4","CLASSIFICATION_TYPE":"U","OBJECT_NAME":"STARLINK-2210","TLE_LINE2":"2 47777  53.0553 319.8811 0001281  77.7627 282.3506 15.06377684 80724","TIME_SYSTEM":"UTC","INCLINATION":"53.0553","FILE":"3533800","ARG_OF_PERICENTER":"77.7627","MEAN_ANOMALY":"282.3506","BSTAR":"-0.00026930000000","REV_AT_EPOCH":"8072","OBJECT_TYPE":"PAYLOAD","EPOCH":"2022-08-10T11:45:19.926144","PERIAPSIS":"546.395","LAUNCH_DATE":"2021-03-04","NORAD_CAT_ID":"47777","EPHEMERIS_TYPE":"0","COUNTRY_CODE":"US","DECAY_DATE":null,"APOAPSIS":"548.169","GP_ID":"209967010","ECCENTRICITY":"0.00012810","ELEMENT_SET_NO":"999"},{"EPOCH":"2022-08-10T18:55:14.353248","PERIAPSIS":"546.475","TIME_SYSTEM":"UTC","INCLINATION":"53.0560","FILE":"3533963","ARG_OF_PERICENTER":"92.3525","REV_AT_EPOCH":"8076","BSTAR":"-0.00002920100000","MEAN_ANOMALY":"267.7586","OBJECT_TYPE":"PAYLOAD","GP_ID":"209996277","ECCENTRICITY":"0.00010620","ELEMENT_SET_NO":"999","LAUNCH_DATE":"2021-03-04","NORAD_CAT_ID":"47778","EPHEMERIS_TYPE":"0","DECAY_DATE":null,"COUNTRY_CODE":"US","APOAPSIS":"547.946","SEMIMAJOR_AXIS":"6925.345","MEAN_MOTION_DOT":"-0.00000716","MEAN_MOTION":"15.06401076","OBJECT_ID":"2021-017BJ","PERIOD":"95.592","MEAN_MOTION_DDOT":"0.0000000000000","TLE_LINE1":"1 47778U 21017BJ  22222.78836057 -.00000716  00000-0 -29201-4 0  9992","CENTER_NAME":"EARTH","RA_OF_ASC_NODE":"318.5245","CLASSIFICATION_TYPE":"U","OBJECT_NAME":"STARLINK-2211","TLE_LINE2":"2 47778  53.0560 318.5245 0001062  92.3525 267.7586 15.06401076 80769","SITE":"AFETR","REF_FRAME":"TEME","RCS_SIZE":"LARGE","MEAN_ELEMENT_THEORY":"SGP4"}];
